street_id,street_address,latitude,longitude,ZEDZ(inside =1),pop_distribution,parcel_delivered(#/year),parcel_delivered(#/day),parcel_delivered(kg/day),USPS_Depot_name,USPS_Depot_parcel(kg),UPS_Depot_name,UPS_Depot_parcel(kg),Amazon_Depot_name,Amazon_Depot_Depot_parcel(kg),FedEX_Depot_name,FedEX_Depot_parcel(kg),USPS_ID,UPS_ID,Amazon_ID,FedEx_ID
1,"10th Court, Santa Monica, CA90403",34.0198901,-118.4884089,0,263.1253561,7367.509972,20.18495883,22.20345471,depot-5,8.437312789,depot-9,5.32882913,depot-10,4.662725489,depot-12,3.996621848,5,9,10,12
2,"10th Court, Santa Monica, CA90405",34.0198965,-118.4872614,0,263.1253561,7367.509972,20.18495883,22.20345471,depot-5,8.437312789,depot-9,5.32882913,depot-10,4.662725489,depot-12,3.996621848,5,9,10,12
3,"10th Street, Santa Monica, CA90401",34.0198901,-118.4884089,0,263.1253561,7367.509972,20.18495883,22.20345471,depot-5,8.437312789,depot-9,5.32882913,depot-10,4.662725489,depot-12,3.996621848,5,9,10,12
4,"10th Street, Santa Monica, CA90402",34.0198901,-118.4884089,0,263.1253561,7367.509972,20.18495883,22.20345471,depot-5,8.437312789,depot-9,5.32882913,depot-10,4.662725489,depot-12,3.996621848,5,9,10,12
5,"10th Street, Santa Monica, CA90403",34.0198901,-118.4884089,0,263.1253561,7367.509972,20.18495883,22.20345471,depot-5,8.437312789,depot-9,5.32882913,depot-10,4.662725489,depot-12,3.996621848,5,9,10,12
6,"10th Street, Santa Monica, CA90404",34.0198901,-118.4884089,0,263.1253561,7367.509972,20.18495883,22.20345471,depot-5,8.437312789,depot-9,5.32882913,depot-10,4.662725489,depot-12,3.996621848,5,9,10,12
7,"10th Street, Santa Monica, CA90405",34.0198901,-118.4884089,0,263.1253561,7367.509972,20.18495883,22.20345471,depot-5,8.437312789,depot-9,5.32882913,depot-10,4.662725489,depot-12,3.996621848,5,9,10,12
8,"11th Court, Santa Monica, CA90403",34.029789,-118.497364,0,263.1253561,7367.509972,20.18495883,22.20345471,depot-1,8.437312789,depot-9,5.32882913,depot-10,4.662725489,depot-12,3.996621848,1,9,10,12
9,"11th Street, Santa Monica, CA90401",34.0242925,-118.4916917,0,263.1253561,7367.509972,20.18495883,22.20345471,depot-4,8.437312789,depot-9,5.32882913,depot-10,4.662725489,depot-12,3.996621848,4,9,10,12
10,"11th Street, Santa Monica, CA90402",34.0242925,-118.4916917,0,263.1253561,7367.509972,20.18495883,22.20345471,depot-4,8.437312789,depot-9,5.32882913,depot-10,4.662725489,depot-12,3.996621848,4,9,10,12
11,"11th Street, Santa Monica, CA90403",34.0253028,-118.4923773,0,263.1253561,7367.509972,20.18495883,22.20345471,depot-4,8.437312789,depot-9,5.32882913,depot-10,4.662725489,depot-12,3.996621848,4,9,10,12
12,"11th Street, Santa Monica, CA90404",34.0194353,-118.4836409,0,263.1253561,7367.509972,20.18495883,22.20345471,depot-5,8.437312789,depot-9,5.32882913,depot-10,4.662725489,depot-12,3.996621848,5,9,10,12
13,"11th Street, Santa Monica, CA90405",34.0185454,-118.4842621,0,263.1253561,7367.509972,20.18495883,22.20345471,depot-5,8.437312789,depot-9,5.32882913,depot-10,4.662725489,depot-12,3.996621848,5,9,10,12
14,"12th Street, Santa Monica, CA90401",34.018562,-118.4834492,0,263.1253561,7367.509972,20.18495883,22.20345471,depot-5,8.437312789,depot-9,5.32882913,depot-10,4.662725489,depot-12,3.996621848,5,9,10,12
15,"12th Street, Santa Monica, CA90402",34.018562,-118.4834492,0,263.1253561,7367.509972,20.18495883,22.20345471,depot-5,8.437312789,depot-9,5.32882913,depot-10,4.662725489,depot-12,3.996621848,5,9,10,12
16,"12th Street, Santa Monica, CA90403",34.018562,-118.4834492,0,263.1253561,7367.509972,20.18495883,22.20345471,depot-5,8.437312789,depot-9,5.32882913,depot-10,4.662725489,depot-12,3.996621848,5,9,10,12
17,"12th Street, Santa Monica, CA90404",34.0194353,-118.4836409,0,263.1253561,7367.509972,20.18495883,22.20345471,depot-5,8.437312789,depot-9,5.32882913,depot-10,4.662725489,depot-12,3.996621848,5,9,10,12
18,"14th Street, Santa Monica, CA90402",34.0225107,-118.4846546,0,263.1253561,7367.509972,20.18495883,22.20345471,depot-3,8.437312789,depot-9,5.32882913,depot-10,4.662725489,depot-12,3.996621848,3,9,10,12
19,"14th Street, Santa Monica, CA90403",34.0225107,-118.4846546,0,263.1253561,7367.509972,20.18495883,22.20345471,depot-3,8.437312789,depot-9,5.32882913,depot-10,4.662725489,depot-12,3.996621848,3,9,10,12
20,"14th Street, Santa Monica, CA90404",34.0225107,-118.4846546,0,263.1253561,7367.509972,20.18495883,22.20345471,depot-3,8.437312789,depot-9,5.32882913,depot-10,4.662725489,depot-12,3.996621848,3,9,10,12
21,"14th Street, Santa Monica, CA90405",34.0154722,-118.4758611,0,263.1253561,7367.509972,20.18495883,22.20345471,depot-5,8.437312789,depot-9,5.32882913,depot-10,4.662725489,depot-14,3.996621848,5,9,10,14
22,"15th Street, Santa Monica, CA90402",34.0347845,-118.4968362,0,263.1253561,7367.509972,20.18495883,22.20345471,depot-2,8.437312789,depot-9,5.32882913,depot-10,4.662725489,depot-12,3.996621848,2,9,10,12
23,"15th Street, Santa Monica, CA90403",34.0308827,-118.491201,0,263.1253561,7367.509972,20.18495883,22.20345471,depot-2,8.437312789,depot-9,5.32882913,depot-10,4.662725489,depot-12,3.996621848,2,9,10,12
24,"15th Street, Santa Monica, CA90404",34.0244138,-118.4838081,0,263.1253561,7367.509972,20.18495883,22.20345471,depot-3,8.437312789,depot-9,5.32882913,depot-10,4.662725489,depot-12,3.996621848,3,9,10,12
25,"16th Street, Santa Monica, CA90402",34.027893,-118.485935,0,263.1253561,7367.509972,20.18495883,22.20345471,depot-3,8.437312789,depot-9,5.32882913,depot-10,4.662725489,depot-12,3.996621848,3,9,10,12
26,"16th Street, Santa Monica, CA90403",34.024171,-118.481585,0,263.1253561,7367.509972,20.18495883,22.20345471,depot-3,8.437312789,depot-9,5.32882913,depot-10,4.662725489,depot-14,3.996621848,3,9,10,14
27,"16th Street, Santa Monica, CA90404",34.024171,-118.481585,0,263.1253561,7367.509972,20.18495883,22.20345471,depot-3,8.437312789,depot-9,5.32882913,depot-10,4.662725489,depot-14,3.996621848,3,9,10,14
28,"16th Street, Santa Monica, CA90405",34.027893,-118.485935,0,263.1253561,7367.509972,20.18495883,22.20345471,depot-3,8.437312789,depot-9,5.32882913,depot-10,4.662725489,depot-12,3.996621848,3,9,10,12
29,"17th Street, Santa Monica, CA90402",34.019349,-118.474101,0,263.1253561,7367.509972,20.18495883,22.20345471,depot-5,8.437312789,depot-9,5.32882913,depot-10,4.662725489,depot-14,3.996621848,5,9,10,14
30,"17th Street, Santa Monica, CA90403",34.019349,-118.474101,0,263.1253561,7367.509972,20.18495883,22.20345471,depot-5,8.437312789,depot-9,5.32882913,depot-10,4.662725489,depot-14,3.996621848,5,9,10,14
31,"17th Street, Santa Monica, CA90404",34.019349,-118.474101,0,263.1253561,7367.509972,20.18495883,22.20345471,depot-5,8.437312789,depot-9,5.32882913,depot-10,4.662725489,depot-14,3.996621848,5,9,10,14
32,"17th Street, Santa Monica, CA90405",34.019349,-118.474101,0,263.1253561,7367.509972,20.18495883,22.20345471,depot-5,8.437312789,depot-9,5.32882913,depot-10,4.662725489,depot-14,3.996621848,5,9,10,14
33,"18th Court, Santa Monica, CA90405",34.022168,-118.4749601,0,263.1253561,7367.509972,20.18495883,22.20345471,depot-5,8.437312789,depot-9,5.32882913,depot-10,4.662725489,depot-14,3.996621848,5,9,10,14
34,"18th Street, Santa Monica, CA90402",34.034654,-118.490179,0,263.1253561,7367.509972,20.18495883,22.20345471,depot-2,8.437312789,depot-9,5.32882913,depot-10,4.662725489,depot-13,3.996621848,2,9,10,13
35,"18th Street, Santa Monica, CA90403",34.034654,-118.490179,0,263.1253561,7367.509972,20.18495883,22.20345471,depot-2,8.437312789,depot-9,5.32882913,depot-10,4.662725489,depot-13,3.996621848,2,9,10,13
36,"18th Street, Santa Monica, CA90404",34.0276216,-118.4830659,0,263.1253561,7367.509972,20.18495883,22.20345471,depot-3,8.437312789,depot-9,5.32882913,depot-10,4.662725489,depot-13,3.996621848,3,9,10,13
37,"18th Street, Santa Monica, CA90405",34.013926,-118.449136,0,263.1253561,7367.509972,20.18495883,22.20345471,depot-8,8.437312789,depot-9,5.32882913,depot-10,4.662725489,depot-15,3.996621848,8,9,10,15
38,"19th Street, Santa Monica, CA90402",34.0280002,-118.4815886,0,263.1253561,7367.509972,20.18495883,22.20345471,depot-3,8.437312789,depot-9,5.32882913,depot-10,4.662725489,depot-14,3.996621848,3,9,10,14
39,"19th Street, Santa Monica, CA90403",34.035617,-118.489464,0,263.1253561,7367.509972,20.18495883,22.20345471,depot-2,8.437312789,depot-9,5.32882913,depot-10,4.662725489,depot-13,3.996621848,2,9,10,13
40,"19th Street, Santa Monica, CA90404",34.0280002,-118.4815886,0,263.1253561,7367.509972,20.18495883,22.20345471,depot-3,8.437312789,depot-9,5.32882913,depot-10,4.662725489,depot-14,3.996621848,3,9,10,14
41,"20th Street, Santa Monica, CA90402",34.0304481,-118.4815625,0,263.1253561,7367.509972,20.18495883,22.20345471,depot-3,8.437312789,depot-9,5.32882913,depot-10,4.662725489,depot-13,3.996621848,3,9,10,13
42,"20th Street, Santa Monica, CA90403",34.0285764,-118.478988,0,263.1253561,7367.509972,20.18495883,22.20345471,depot-3,8.437312789,depot-9,5.32882913,depot-10,4.662725489,depot-14,3.996621848,3,9,10,14
43,"20th Street, Santa Monica, CA90404",34.0297985,-118.4810796,0,263.1253561,7367.509972,20.18495883,22.20345471,depot-3,8.437312789,depot-9,5.32882913,depot-10,4.662725489,depot-13,3.996621848,3,9,10,13
44,"20th Street, Santa Monica, CA90405",34.0304481,-118.4815625,0,263.1253561,7367.509972,20.18495883,22.20345471,depot-3,8.437312789,depot-9,5.32882913,depot-10,4.662725489,depot-13,3.996621848,3,9,10,13
45,"21st Place, Santa Monica, CA90402",34.036975,-118.48838,0,263.1253561,7367.509972,20.18495883,22.20345471,depot-2,8.437312789,depot-9,5.32882913,depot-10,4.662725489,depot-13,3.996621848,2,9,10,13
46,"21st Street, Santa Monica, CA90402",34.036975,-118.48838,0,263.1253561,7367.509972,20.18495883,22.20345471,depot-2,8.437312789,depot-9,5.32882913,depot-10,4.662725489,depot-13,3.996621848,2,9,10,13
47,"21st Street, Santa Monica, CA90403",34.036975,-118.48838,0,263.1253561,7367.509972,20.18495883,22.20345471,depot-2,8.437312789,depot-9,5.32882913,depot-10,4.662725489,depot-13,3.996621848,2,9,10,13
48,"21st Street, Santa Monica, CA90404",34.036975,-118.48838,0,263.1253561,7367.509972,20.18495883,22.20345471,depot-2,8.437312789,depot-9,5.32882913,depot-10,4.662725489,depot-13,3.996621848,2,9,10,13
49,"21st Street, Santa Monica, CA90405",34.0283292,-118.4772454,0,263.1253561,7367.509972,20.18495883,22.20345471,depot-3,8.437312789,depot-9,5.32882913,depot-10,4.662725489,depot-14,3.996621848,3,9,10,14
50,"22nd Street, Santa Monica, CA90402",34.046956,-118.4905744,0,263.1253561,7367.509972,20.18495883,22.20345471,depot-2,8.437312789,depot-9,5.32882913,depot-10,4.662725489,depot-13,3.996621848,2,9,10,13
51,"22nd Street, Santa Monica, CA90403",34.032174,-118.482698,0,263.1253561,7367.509972,20.18495883,22.20345471,depot-3,8.437312789,depot-9,5.32882913,depot-10,4.662725489,depot-13,3.996621848,3,9,10,13
52,"22nd Street, Santa Monica, CA90404",34.025047,-118.4725694,0,263.1253561,7367.509972,20.18495883,22.20345471,depot-3,8.437312789,depot-9,5.32882913,depot-10,4.662725489,depot-14,3.996621848,3,9,10,14
53,"22nd Street, Santa Monica, CA90405",34.025047,-118.4725694,0,263.1253561,7367.509972,20.18495883,22.20345471,depot-3,8.437312789,depot-9,5.32882913,depot-10,4.662725489,depot-14,3.996621848,3,9,10,14
54,"23rd Street, Santa Monica, CA90402",34.0390471,-118.4861868,0,263.1253561,7367.509972,20.18495883,22.20345471,depot-2,8.437312789,depot-9,5.32882913,depot-10,4.662725489,depot-13,3.996621848,2,9,10,13
55,"23rd Street, Santa Monica, CA90403",34.0390471,-118.4861868,0,263.1253561,7367.509972,20.18495883,22.20345471,depot-2,8.437312789,depot-9,5.32882913,depot-10,4.662725489,depot-13,3.996621848,2,9,10,13
56,"23rd Street, Santa Monica, CA90404",34.0299388,-118.476715,0,263.1253561,7367.509972,20.18495883,22.20345471,depot-3,8.437312789,depot-9,5.32882913,depot-10,4.662725489,depot-14,3.996621848,3,9,10,14
57,"23rd Street, Santa Monica, CA90405",34.0299388,-118.476715,0,263.1253561,7367.509972,20.18495883,22.20345471,depot-3,8.437312789,depot-9,5.32882913,depot-10,4.662725489,depot-14,3.996621848,3,9,10,14
58,"24th Court, Santa Monica, CA90405",34.0195669,-118.4507518,0,263.1253561,7367.509972,20.18495883,22.20345471,depot-8,8.437312789,depot-9,5.32882913,depot-10,4.662725489,depot-14,3.996621848,8,9,10,14
59,"24th Street, Santa Monica, CA90402",34.0333862,-118.4790377,0,263.1253561,7367.509972,20.18495883,22.20345471,depot-2,8.437312789,depot-9,5.32882913,depot-10,4.662725489,depot-13,3.996621848,2,9,10,13
60,"24th Street, Santa Monica, CA90403",34.0333862,-118.4790377,0,263.1253561,7367.509972,20.18495883,22.20345471,depot-2,8.437312789,depot-9,5.32882913,depot-10,4.662725489,depot-13,3.996621848,2,9,10,13
61,"24th Street, Santa Monica, CA90404",34.0333862,-118.4790377,0,263.1253561,7367.509972,20.18495883,22.20345471,depot-2,8.437312789,depot-9,5.32882913,depot-10,4.662725489,depot-13,3.996621848,2,9,10,13
62,"24th Street, Santa Monica, CA90405",34.0218081,-118.4638611,0,263.1253561,7367.509972,20.18495883,22.20345471,depot-5,8.437312789,depot-9,5.32882913,depot-10,4.662725489,depot-14,3.996621848,5,9,10,14
63,"25th Street, Santa Monica, CA90402",34.0330731,-118.4781699,0,263.1253561,7367.509972,20.18495883,22.20345471,depot-3,8.437312789,depot-9,5.32882913,depot-10,4.662725489,depot-13,3.996621848,3,9,10,13
64,"25th Street, Santa Monica, CA90403",34.0383221,-118.4824523,0,263.1253561,7367.509972,20.18495883,22.20345471,depot-2,8.437312789,depot-9,5.32882913,depot-10,4.662725489,depot-13,3.996621848,2,9,10,13
65,"25th Street, Santa Monica, CA90404",34.0330731,-118.4781699,0,263.1253561,7367.509972,20.18495883,22.20345471,depot-3,8.437312789,depot-9,5.32882913,depot-10,4.662725489,depot-13,3.996621848,3,9,10,13
66,"25th Street, Santa Monica, CA90405",34.0315211,-118.4738565,0,263.1253561,7367.509972,20.18495883,22.20345471,depot-3,8.437312789,depot-9,5.32882913,depot-10,4.662725489,depot-14,3.996621848,3,9,10,14
67,"26th Street, Santa Monica, CA90402",34.0472377,-118.490797,0,263.1253561,7367.509972,20.18495883,22.20345471,depot-2,8.437312789,depot-9,5.32882913,depot-10,4.662725489,depot-13,3.996621848,2,9,10,13
68,"26th Street, Santa Monica, CA90403",34.0361543,-118.4778601,0,263.1253561,7367.509972,20.18495883,22.20345471,depot-2,8.437312789,depot-9,5.32882913,depot-10,4.662725489,depot-13,3.996621848,2,9,10,13
69,"26th Street, Santa Monica, CA90404",34.03302,-118.474037,0,263.1253561,7367.509972,20.18495883,22.20345471,depot-3,8.437312789,depot-9,5.32882913,depot-10,4.662725489,depot-14,3.996621848,3,9,10,14
70,"26th Street, Santa Monica, CA90405",34.02875,-118.4717975,0,263.1253561,7367.509972,20.18495883,22.20345471,depot-3,8.437312789,depot-9,5.32882913,depot-10,4.662725489,depot-14,3.996621848,3,9,10,14
71,"27th Street, Santa Monica, CA90404",34.025047,-118.4725694,0,263.1253561,7367.509972,20.18495883,22.20345471,depot-3,8.437312789,depot-9,5.32882913,depot-10,4.662725489,depot-14,3.996621848,3,9,10,14
72,"27th Street, Santa Monica, CA90405",34.0248212,-118.4599269,0,263.1253561,7367.509972,20.18495883,22.20345471,depot-5,8.437312789,depot-9,5.32882913,depot-10,4.662725489,depot-14,3.996621848,5,9,10,14
73,"28th Street, Santa Monica, CA90405",34.0194385,-118.4558742,0,263.1253561,7367.509972,20.18495883,22.20345471,depot-8,8.437312789,depot-9,5.32882913,depot-10,4.662725489,depot-14,3.996621848,8,9,10,14
74,"29th Street, Santa Monica, CA90405",34.0242645,-118.4592718,0,263.1253561,7367.509972,20.18495883,22.20345471,depot-5,8.437312789,depot-9,5.32882913,depot-10,4.662725489,depot-14,3.996621848,5,9,10,14
75,"2nd Court, Santa Monica, CA90403",34.022201,-118.506132,0,263.1253561,7367.509972,20.18495883,22.20345471,depot-1,8.437312789,depot-9,5.32882913,depot-10,4.662725489,depot-11,3.996621848,1,9,10,11
76,"2nd Street, Santa Monica, CA90401",34.0123751,-118.4946573,1,263.1253561,7367.509972,20.18495883,22.20345471,depot-5,8.437312789,depot-9,5.32882913,depot-10,4.662725489,depot-11,3.996621848,5,9,10,11
77,"2nd Street, Santa Monica, CA90403",34.022201,-118.506132,0,263.1253561,7367.509972,20.18495883,22.20345471,depot-1,8.437312789,depot-9,5.32882913,depot-10,4.662725489,depot-11,3.996621848,1,9,10,11
78,"2nd Street, Santa Monica, CA90405",34.0138739,-118.4962475,1,263.1253561,7367.509972,20.18495883,22.20345471,depot-5,8.437312789,depot-9,5.32882913,depot-10,4.662725489,depot-11,3.996621848,5,9,10,11
79,"30th Street, Santa Monica, CA90405",34.020396,-118.4549669,0,263.1253561,7367.509972,20.18495883,22.20345471,depot-8,8.437312789,depot-9,5.32882913,depot-10,4.662725489,depot-14,3.996621848,8,9,10,14
80,"31st Street, Santa Monica, CA90405",34.0195669,-118.4507518,0,263.1253561,7367.509972,20.18495883,22.20345471,depot-8,8.437312789,depot-9,5.32882913,depot-10,4.662725489,depot-14,3.996621848,8,9,10,14
81,"32nd Street, Santa Monica, CA90405",34.0212126,-118.4524403,0,263.1253561,7367.509972,20.18495883,22.20345471,depot-8,8.437312789,depot-9,5.32882913,depot-10,4.662725489,depot-14,3.996621848,8,9,10,14
82,"33rd Street, Santa Monica, CA90405",34.0243898,-118.4532301,0,263.1253561,7367.509972,20.18495883,22.20345471,depot-8,8.437312789,depot-9,5.32882913,depot-10,4.662725489,depot-14,3.996621848,8,9,10,14
83,"34th Street, Santa Monica, CA90404",34.026404,-118.452931,0,263.1253561,7367.509972,20.18495883,22.20345471,depot-8,8.437312789,depot-9,5.32882913,depot-10,4.662725489,depot-14,3.996621848,8,9,10,14
84,"34th Street, Santa Monica, CA90405",34.025317,-118.452904,0,263.1253561,7367.509972,20.18495883,22.20345471,depot-8,8.437312789,depot-9,5.32882913,depot-10,4.662725489,depot-14,3.996621848,8,9,10,14
85,"3rd Street, Santa Monica, CA90401",34.0164092,-118.4967894,1,263.1253561,7367.509972,20.18495883,22.20345471,depot-5,8.437312789,depot-9,5.32882913,depot-10,4.662725489,depot-11,3.996621848,5,9,10,11
86,"3rd Street, Santa Monica, CA90403",34.0164092,-118.4967894,1,263.1253561,7367.509972,20.18495883,22.20345471,depot-5,8.437312789,depot-9,5.32882913,depot-10,4.662725489,depot-11,3.996621848,5,9,10,11
87,"3rd Street, Santa Monica, CA90405",34.0164092,-118.4967894,1,263.1253561,7367.509972,20.18495883,22.20345471,depot-5,8.437312789,depot-9,5.32882913,depot-10,4.662725489,depot-11,3.996621848,5,9,10,11
88,"3rd Street Promenade, Santa Monica, CA90401",34.0164092,-118.4967894,1,263.1253561,7367.509972,20.18495883,22.20345471,depot-5,8.437312789,depot-9,5.32882913,depot-10,4.662725489,depot-11,3.996621848,5,9,10,11
89,"3rd Street Promenade, Santa Monica, CA90403",34.0164092,-118.4967894,1,263.1253561,7367.509972,20.18495883,22.20345471,depot-5,8.437312789,depot-9,5.32882913,depot-10,4.662725489,depot-11,3.996621848,5,9,10,11
90,"4th Avenue, Santa Monica, CA90401",34.021548,-118.500623,0,263.1253561,7367.509972,20.18495883,22.20345471,depot-1,8.437312789,depot-9,5.32882913,depot-10,4.662725489,depot-11,3.996621848,1,9,10,11
91,"4th Avenue, Santa Monica, CA90402",34.021548,-118.500623,0,263.1253561,7367.509972,20.18495883,22.20345471,depot-1,8.437312789,depot-9,5.32882913,depot-10,4.662725489,depot-11,3.996621848,1,9,10,11
92,"4th Avenue, Santa Monica, CA90403",34.021548,-118.500623,0,263.1253561,7367.509972,20.18495883,22.20345471,depot-1,8.437312789,depot-9,5.32882913,depot-10,4.662725489,depot-11,3.996621848,1,9,10,11
93,"4th Avenue, Santa Monica, CA90405",34.0096318,-118.4870584,1,263.1253561,7367.509972,20.18495883,22.20345471,depot-5,8.437312789,depot-9,5.32882913,depot-10,4.662725489,depot-11,3.996621848,5,9,10,11
94,"4th Court, Santa Monica, CA90403",34.021548,-118.500623,0,263.1253561,7367.509972,20.18495883,22.20345471,depot-1,8.437312789,depot-9,5.32882913,depot-10,4.662725489,depot-11,3.996621848,1,9,10,11
95,"4th Street, Santa Monica, CA90401",34.021548,-118.500623,0,263.1253561,7367.509972,20.18495883,22.20345471,depot-1,8.437312789,depot-9,5.32882913,depot-10,4.662725489,depot-11,3.996621848,1,9,10,11
96,"4th Street, Santa Monica, CA90402",34.021548,-118.500623,0,263.1253561,7367.509972,20.18495883,22.20345471,depot-1,8.437312789,depot-9,5.32882913,depot-10,4.662725489,depot-11,3.996621848,1,9,10,11
97,"4th Street, Santa Monica, CA90403",34.021548,-118.500623,0,263.1253561,7367.509972,20.18495883,22.20345471,depot-1,8.437312789,depot-9,5.32882913,depot-10,4.662725489,depot-11,3.996621848,1,9,10,11
98,"4th Street, Santa Monica, CA90405",34.021548,-118.500623,0,263.1253561,7367.509972,20.18495883,22.20345471,depot-1,8.437312789,depot-9,5.32882913,depot-10,4.662725489,depot-11,3.996621848,1,9,10,11
99,"5th Street, Santa Monica, CA90401",34.01471,-118.491841,1,263.1253561,7367.509972,20.18495883,22.20345471,depot-5,8.437312789,depot-9,5.32882913,depot-10,4.662725489,depot-11,3.996621848,5,9,10,11
100,"5th Street, Santa Monica, CA90403",34.0231242,-118.5014936,0,263.1253561,7367.509972,20.18495883,22.20345471,depot-1,8.437312789,depot-9,5.32882913,depot-10,4.662725489,depot-11,3.996621848,1,9,10,11
101,"5th Street, Santa Monica, CA90405",34.01471,-118.491841,1,263.1253561,7367.509972,20.18495883,22.20345471,depot-5,8.437312789,depot-9,5.32882913,depot-10,4.662725489,depot-11,3.996621848,5,9,10,11
102,"6th Court, Santa Monica, CA90403",34.0259405,-118.5020963,0,263.1253561,7367.509972,20.18495883,22.20345471,depot-1,8.437312789,depot-9,5.32882913,depot-10,4.662725489,depot-11,3.996621848,1,9,10,11
103,"6th Street, Santa Monica, CA90401",34.0163953,-118.4908929,1,263.1253561,7367.509972,20.18495883,22.20345471,depot-5,8.437312789,depot-9,5.32882913,depot-10,4.662725489,depot-11,3.996621848,5,9,10,11
104,"6th Street, Santa Monica, CA90403",34.0259405,-118.5020963,0,263.1253561,7367.509972,20.18495883,22.20345471,depot-1,8.437312789,depot-9,5.32882913,depot-10,4.662725489,depot-11,3.996621848,1,9,10,11
105,"6th Street, Santa Monica, CA90405",34.0108262,-118.4848923,1,263.1253561,7367.509972,20.18495883,22.20345471,depot-5,8.437312789,depot-9,5.32882913,depot-10,4.662725489,depot-12,3.996621848,5,9,10,12
106,"7th Street, Santa Monica, CA90401",34.0150398,-118.4875136,1,263.1253561,7367.509972,20.18495883,22.20345471,depot-5,8.437312789,depot-9,5.32882913,depot-10,4.662725489,depot-12,3.996621848,5,9,10,12
107,"7th Street, Santa Monica, CA90402",34.0162086,-118.4898283,1,263.1253561,7367.509972,20.18495883,22.20345471,depot-5,8.437312789,depot-9,5.32882913,depot-10,4.662725489,depot-12,3.996621848,5,9,10,12
108,"7th Street, Santa Monica, CA90403",34.0162086,-118.4898283,1,263.1253561,7367.509972,20.18495883,22.20345471,depot-5,8.437312789,depot-9,5.32882913,depot-10,4.662725489,depot-12,3.996621848,5,9,10,12
109,"7th Street, Santa Monica, CA90405",34.0162086,-118.4898283,1,263.1253561,7367.509972,20.18495883,22.20345471,depot-5,8.437312789,depot-9,5.32882913,depot-10,4.662725489,depot-12,3.996621848,5,9,10,12
110,"9th Court, Santa Monica, CA90401",34.027126,-118.498994,0,263.1253561,7367.509972,20.18495883,22.20345471,depot-1,8.437312789,depot-9,5.32882913,depot-10,4.662725489,depot-12,3.996621848,1,9,10,12
111,"9th Court, Santa Monica, CA90403",34.027126,-118.498994,0,263.1253561,7367.509972,20.18495883,22.20345471,depot-1,8.437312789,depot-9,5.32882913,depot-10,4.662725489,depot-12,3.996621848,1,9,10,12
112,"9th Street, Santa Monica, CA90401",34.0194605,-118.4900157,0,263.1253561,7367.509972,20.18495883,22.20345471,depot-5,8.437312789,depot-9,5.32882913,depot-10,4.662725489,depot-12,3.996621848,5,9,10,12
113,"9th Street, Santa Monica, CA90402",34.0268321,-118.4978285,0,263.1253561,7367.509972,20.18495883,22.20345471,depot-1,8.437312789,depot-9,5.32882913,depot-10,4.662725489,depot-12,3.996621848,1,9,10,12
114,"9th Street, Santa Monica, CA90403",34.027126,-118.498994,0,263.1253561,7367.509972,20.18495883,22.20345471,depot-1,8.437312789,depot-9,5.32882913,depot-10,4.662725489,depot-12,3.996621848,1,9,10,12
115,"9th Street, Santa Monica, CA90404",34.0190827,-118.4875016,0,263.1253561,7367.509972,20.18495883,22.20345471,depot-5,8.437312789,depot-9,5.32882913,depot-10,4.662725489,depot-12,3.996621848,5,9,10,12
116,"Adelaide Drive, Santa Monica, CA90402",34.0320396,-118.5097061,0,263.1253561,7367.509972,20.18495883,22.20345471,depot-1,8.437312789,depot-9,5.32882913,depot-10,4.662725489,depot-11,3.996621848,1,9,10,11
117,"Adelaide Place, Santa Monica, CA90402",34.0320396,-118.5097061,0,263.1253561,7367.509972,20.18495883,22.20345471,depot-1,8.437312789,depot-9,5.32882913,depot-10,4.662725489,depot-11,3.996621848,1,9,10,11
118,"Airport Avenue, Santa Monica, CA90405",34.0178143,-118.4473286,0,263.1253561,7367.509972,20.18495883,22.20345471,depot-8,8.437312789,depot-9,5.32882913,depot-10,4.662725489,depot-15,3.996621848,8,9,10,15
119,"Alisal Court, Santa Monica, CA90402",34.0406633,-118.509218,0,263.1253561,7367.509972,20.18495883,22.20345471,depot-1,8.437312789,depot-9,5.32882913,depot-10,4.662725489,depot-12,3.996621848,1,9,10,12
120,"Alisal Lane, Santa Monica, CA90402",34.0402818,-118.5095849,0,263.1253561,7367.509972,20.18495883,22.20345471,depot-1,8.437312789,depot-9,5.32882913,depot-10,4.662725489,depot-12,3.996621848,1,9,10,12
121,"Alta Avenue, Santa Monica, CA90402",34.0247671,-118.5089937,0,263.1253561,7367.509972,20.18495883,22.20345471,depot-1,8.437312789,depot-9,5.32882913,depot-10,4.662725489,depot-11,3.996621848,1,9,10,11
122,"Amalfi Court, Santa Monica, CA90402",34.0330676,-118.5116388,0,263.1253561,7367.509972,20.18495883,22.20345471,depot-1,8.437312789,depot-9,5.32882913,depot-10,4.662725489,depot-11,3.996621848,1,9,10,11
123,"Amalfi Drive, Santa Monica, CA90402",34.0323474,-118.5132699,0,263.1253561,7367.509972,20.18495883,22.20345471,depot-1,8.437312789,depot-9,5.32882913,depot-10,4.662725489,depot-11,3.996621848,1,9,10,11
124,"Appian Way, Santa Monica, CA90401",34.0075098,-118.4924572,1,263.1253561,7367.509972,20.18495883,22.20345471,depot-5,8.437312789,depot-9,5.32882913,depot-10,4.662725489,depot-11,3.996621848,5,9,10,11
125,"Arcadia Terrace, Santa Monica, CA90401",34.0083927,-118.4934689,0,263.1253561,7367.509972,20.18495883,22.20345471,depot-5,8.437312789,depot-9,5.32882913,depot-10,4.662725489,depot-11,3.996621848,5,9,10,11
126,"Arizona Avenue, Santa Monica, CA90401",34.0171162,-118.4972486,1,263.1253561,7367.509972,20.18495883,22.20345471,depot-5,8.437312789,depot-9,5.32882913,depot-10,4.662725489,depot-11,3.996621848,5,9,10,11
127,"Arizona Avenue, Santa Monica, CA90404",34.0265309,-118.4857078,0,263.1253561,7367.509972,20.18495883,22.20345471,depot-3,8.437312789,depot-9,5.32882913,depot-10,4.662725489,depot-12,3.996621848,3,9,10,12
128,"Arizona Place, Santa Monica, CA90404",34.0194805,-118.495358,1,263.1253561,7367.509972,20.18495883,22.20345471,depot-4,8.437312789,depot-9,5.32882913,depot-10,4.662725489,depot-11,3.996621848,4,9,10,11
129,"Ashland Avenue, Santa Monica, CA90405",34.0001965,-118.4814561,1,263.1253561,7367.509972,20.18495883,22.20345471,depot-6,8.437312789,depot-9,5.32882913,depot-10,4.662725489,depot-11,3.996621848,6,9,10,11
130,"Ashland Pl N, Santa Monica, CA90405",34.0052557,-118.4732608,0,263.1253561,7367.509972,20.18495883,22.20345471,depot-6,8.437312789,depot-9,5.32882913,depot-10,4.662725489,depot-14,3.996621848,6,9,10,14
131,"Ashland Place, Santa Monica, CA90405",34.0001965,-118.4814561,1,263.1253561,7367.509972,20.18495883,22.20345471,depot-6,8.437312789,depot-9,5.32882913,depot-10,4.662725489,depot-11,3.996621848,6,9,10,11
132,"Attilla Road, Santa Monica, CA90402",34.0379788,-118.5169135,0,263.1253561,7367.509972,20.18495883,22.20345471,depot-1,8.437312789,depot-9,5.32882913,depot-10,4.662725489,depot-11,3.996621848,1,9,10,11
133,"Barnard Way, Santa Monica, CA90405",34.0016865,-118.4867156,1,263.1253561,7367.509972,20.18495883,22.20345471,depot-6,8.437312789,depot-9,5.32882913,depot-10,4.662725489,depot-11,3.996621848,6,9,10,11
134,"Bay Street, Santa Monica, CA90405",34.0135437,-118.4787339,0,263.1253561,7367.509972,20.18495883,22.20345471,depot-5,8.437312789,depot-9,5.32882913,depot-10,4.662725489,depot-12,3.996621848,5,9,10,12
135,"Beach Street, Santa Monica, CA90405",34.0022488,-118.4883355,1,263.1253561,7367.509972,20.18495883,22.20345471,depot-6,8.437312789,depot-9,5.32882913,depot-10,4.662725489,depot-11,3.996621848,6,9,10,11
136,"Bentley Court, Santa Monica, CA90405",34.0033673,-118.4727189,1,263.1253561,7367.509972,20.18495883,22.20345471,depot-6,8.437312789,depot-9,5.32882913,depot-10,4.662725489,depot-14,3.996621848,6,9,10,14
137,"Berkeley Street, Santa Monica, CA90403",34.032179,-118.4638579,0,263.1253561,7367.509972,20.18495883,22.20345471,depot-3,8.437312789,depot-9,5.32882913,depot-10,4.662725489,depot-14,3.996621848,3,9,10,14
138,"Berkeley Street, Santa Monica, CA90404",34.032179,-118.4638579,0,263.1253561,7367.509972,20.18495883,22.20345471,depot-3,8.437312789,depot-9,5.32882913,depot-10,4.662725489,depot-14,3.996621848,3,9,10,14
139,"Beverly Avenue, Santa Monica, CA90405",34.010893,-118.480957,0,263.1253561,7367.509972,20.18495883,22.20345471,depot-5,8.437312789,depot-9,5.32882913,depot-10,4.662725489,depot-12,3.996621848,5,9,10,12
140,"Bicknell Avenue, Santa Monica, CA90405",34.0046064,-118.4909489,1,263.1253561,7367.509972,20.18495883,22.20345471,depot-6,8.437312789,depot-9,5.32882913,depot-10,4.662725489,depot-11,3.996621848,6,9,10,11
141,"Brentwood Terrace, Santa Monica, CA90402",34.0465846,-118.4896548,0,263.1253561,7367.509972,20.18495883,22.20345471,depot-2,8.437312789,depot-9,5.32882913,depot-10,4.662725489,depot-13,3.996621848,2,9,10,13
142,"Broadway, Santa Monica, CA90401",34.016159,-118.4916379,1,263.1253561,7367.509972,20.18495883,22.20345471,depot-5,8.437312789,depot-9,5.32882913,depot-10,4.662725489,depot-11,3.996621848,5,9,10,11
143,"Broadway, Santa Monica, CA90404",34.0278368,-118.4768669,0,263.1253561,7367.509972,20.18495883,22.20345471,depot-3,8.437312789,depot-9,5.32882913,depot-10,4.662725489,depot-14,3.996621848,3,9,10,14
144,"Broadway Street, Santa Monica, CA90401",34.016159,-118.4916379,1,263.1253561,7367.509972,20.18495883,22.20345471,depot-5,8.437312789,depot-9,5.32882913,depot-10,4.662725489,depot-11,3.996621848,5,9,10,11
145,"Broadway Street, Santa Monica, CA90404",34.0278368,-118.4768669,0,263.1253561,7367.509972,20.18495883,22.20345471,depot-3,8.437312789,depot-9,5.32882913,depot-10,4.662725489,depot-14,3.996621848,3,9,10,14
146,"Brooktree Road, Santa Monica, CA90402",34.0405529,-118.5150756,0,263.1253561,7367.509972,20.18495883,22.20345471,depot-1,8.437312789,depot-9,5.32882913,depot-10,4.662725489,depot-11,3.996621848,1,9,10,11
147,"Bryn Mawr Avenue, Santa Monica, CA90405",34.0084754,-118.4655186,0,263.1253561,7367.509972,20.18495883,22.20345471,depot-6,8.437312789,depot-9,5.32882913,depot-10,4.662725489,depot-14,3.996621848,6,9,10,14
148,"California Avenue, Santa Monica, CA90403",34.0272259,-118.4910083,0,263.1253561,7367.509972,20.18495883,22.20345471,depot-3,8.437312789,depot-9,5.32882913,depot-10,4.662725489,depot-12,3.996621848,3,9,10,12
149,"California Incline, Santa Monica, CA90403",34.0194536,-118.5051072,0,263.1253561,7367.509972,20.18495883,22.20345471,depot-1,8.437312789,depot-9,5.32882913,depot-10,4.662725489,depot-11,3.996621848,1,9,10,11
150,"California Pl N, Santa Monica, CA90403",34.037415,-118.4793794,0,263.1253561,7367.509972,20.18495883,22.20345471,depot-2,8.437312789,depot-9,5.32882913,depot-10,4.662725489,depot-13,3.996621848,2,9,10,13
151,"Carlyle Avenue, Santa Monica, CA90402",34.046956,-118.4905744,0,263.1253561,7367.509972,20.18495883,22.20345471,depot-2,8.437312789,depot-9,5.32882913,depot-10,4.662725489,depot-13,3.996621848,2,9,10,13
152,"Cedar Street, Santa Monica, CA90405",34.010099,-118.4772463,0,263.1253561,7367.509972,20.18495883,22.20345471,depot-5,8.437312789,depot-9,5.32882913,depot-10,4.662725489,depot-12,3.996621848,5,9,10,12
153,"Centinela Avenue, Santa Monica, CA90403",34.0378947,-118.467132,0,263.1253561,7367.509972,20.18495883,22.20345471,depot-2,8.437312789,depot-9,5.32882913,depot-10,4.662725489,depot-14,3.996621848,2,9,10,14
154,"Centinela Avenue, Santa Monica, CA90404",34.0378947,-118.467132,0,263.1253561,7367.509972,20.18495883,22.20345471,depot-2,8.437312789,depot-9,5.32882913,depot-10,4.662725489,depot-14,3.996621848,2,9,10,14
155,"Channel Lane, Santa Monica, CA90402",34.029798,-118.5174586,0,263.1253561,7367.509972,20.18495883,22.20345471,depot-1,8.437312789,depot-9,5.32882913,depot-10,4.662725489,depot-11,3.996621848,1,9,10,11
156,"Chautauqua Boulevard, Santa Monica, CA90402",34.0285607,-118.5194923,0,263.1253561,7367.509972,20.18495883,22.20345471,depot-1,8.437312789,depot-9,5.32882913,depot-10,4.662725489,depot-11,3.996621848,1,9,10,11
157,"Chelsea Avenue, Santa Monica, CA90403",34.036444,-118.4814937,0,263.1253561,7367.509972,20.18495883,22.20345471,depot-2,8.437312789,depot-9,5.32882913,depot-10,4.662725489,depot-13,3.996621848,2,9,10,13
158,"Chelsea Avenue, Santa Monica, CA90404",34.0330557,-118.4766994,0,263.1253561,7367.509972,20.18495883,22.20345471,depot-3,8.437312789,depot-9,5.32882913,depot-10,4.662725489,depot-14,3.996621848,3,9,10,14
159,"Chelsea Court, Santa Monica, CA90403",34.0155993,-118.4984004,1,263.1253561,7367.509972,20.18495883,22.20345471,depot-5,8.437312789,depot-9,5.32882913,depot-10,4.662725489,depot-11,3.996621848,5,9,10,11
160,"Chelsea Place, Santa Monica, CA90404",34.0330557,-118.4766994,0,263.1253561,7367.509972,20.18495883,22.20345471,depot-3,8.437312789,depot-9,5.32882913,depot-10,4.662725489,depot-14,3.996621848,3,9,10,14
161,"Clover Street, Santa Monica, CA90405",34.0165406,-118.4567463,0,263.1253561,7367.509972,20.18495883,22.20345471,depot-8,8.437312789,depot-9,5.32882913,depot-10,4.662725489,depot-14,3.996621848,8,9,10,14
162,"Cloverfield Boulevard, Santa Monica, CA90404",34.026915,-118.471285,0,263.1253561,7367.509972,20.18495883,22.20345471,depot-3,8.437312789,depot-9,5.32882913,depot-10,4.662725489,depot-14,3.996621848,3,9,10,14
163,"Cloverfield Boulevard, Santa Monica, CA90405",34.0296296,-118.4754413,0,263.1253561,7367.509972,20.18495883,22.20345471,depot-3,8.437312789,depot-9,5.32882913,depot-10,4.662725489,depot-14,3.996621848,3,9,10,14
164,"Colorado Avenue, Santa Monica, CA90401",34.0199022,-118.4847068,0,263.1253561,7367.509972,20.18495883,22.20345471,depot-5,8.437312789,depot-9,5.32882913,depot-10,4.662725489,depot-12,3.996621848,5,9,10,12
165,"Colorado Avenue, Santa Monica, CA90404",34.0325149,-118.4692906,0,263.1253561,7367.509972,20.18495883,22.20345471,depot-3,8.437312789,depot-9,5.32882913,depot-10,4.662725489,depot-14,3.996621848,3,9,10,14
166,"Copeland Court, Santa Monica, CA90405",34.0059166,-118.4802995,1,263.1253561,7367.509972,20.18495883,22.20345471,depot-6,8.437312789,depot-9,5.32882913,depot-10,4.662725489,depot-12,3.996621848,6,9,10,12
167,"Darlington Avenue, Santa Monica, CA90403",34.0529706,-118.464077,0,263.1253561,7367.509972,20.18495883,22.20345471,depot-2,8.437312789,depot-9,5.32882913,depot-10,4.662725489,depot-13,3.996621848,2,9,10,13
168,"Delaware Avenue, Santa Monica, CA90404",34.02226,-118.4720984,0,263.1253561,7367.509972,20.18495883,22.20345471,depot-5,8.437312789,depot-9,5.32882913,depot-10,4.662725489,depot-14,3.996621848,5,9,10,14
169,"Dewey Place, Santa Monica, CA90405",34.0092271,-118.4580775,0,263.1253561,7367.509972,20.18495883,22.20345471,depot-7,8.437312789,depot-9,5.32882913,depot-10,4.662725489,depot-15,3.996621848,7,9,10,15
170,"Dewey Street, Santa Monica, CA90405",34.0092271,-118.4580775,0,263.1253561,7367.509972,20.18495883,22.20345471,depot-7,8.437312789,depot-9,5.32882913,depot-10,4.662725489,depot-15,3.996621848,7,9,10,15
171,"Donald Douglas Loop N, Santa Monica, CA90405",34.0167994,-118.4529489,0,263.1253561,7367.509972,20.18495883,22.20345471,depot-8,8.437312789,depot-9,5.32882913,depot-10,4.662725489,depot-14,3.996621848,8,9,10,14
172,"Donald Douglas Loop S, Santa Monica, CA90405",34.017216,-118.4470352,0,263.1253561,7367.509972,20.18495883,22.20345471,depot-8,8.437312789,depot-9,5.32882913,depot-10,4.662725489,depot-15,3.996621848,8,9,10,15
173,"Dorchester Avenue, Santa Monica, CA90404",34.0206946,-118.5005082,0,263.1253561,7367.509972,20.18495883,22.20345471,depot-1,8.437312789,depot-9,5.32882913,depot-10,4.662725489,depot-11,3.996621848,1,9,10,11
174,"Dryad Court, Santa Monica, CA90402",34.0351593,-118.5103991,0,263.1253561,7367.509972,20.18495883,22.20345471,depot-1,8.437312789,depot-9,5.32882913,depot-10,4.662725489,depot-11,3.996621848,1,9,10,11
175,"Dryad Road, Santa Monica, CA90402",34.0351593,-118.5103991,0,263.1253561,7367.509972,20.18495883,22.20345471,depot-1,8.437312789,depot-9,5.32882913,depot-10,4.662725489,depot-11,3.996621848,1,9,10,11
176,"E Channel Road, Santa Monica, CA90402",34.0283383,-118.5189364,0,263.1253561,7367.509972,20.18495883,22.20345471,depot-1,8.437312789,depot-9,5.32882913,depot-10,4.662725489,depot-11,3.996621848,1,9,10,11
177,"E Ocean Avenue, Santa Monica, CA90401",34.0159981,-118.499712,1,263.1253561,7367.509972,20.18495883,22.20345471,depot-5,8.437312789,depot-9,5.32882913,depot-10,4.662725489,depot-11,3.996621848,5,9,10,11
178,"E Ocean Avenue, Santa Monica, CA90402",34.0230417,-118.5078273,0,263.1253561,7367.509972,20.18495883,22.20345471,depot-1,8.437312789,depot-9,5.32882913,depot-10,4.662725489,depot-11,3.996621848,1,9,10,11
179,"E Ocean Avenue, Santa Monica, CA90403",34.019002,-118.503172,0,263.1253561,7367.509972,20.18495883,22.20345471,depot-1,8.437312789,depot-9,5.32882913,depot-10,4.662725489,depot-11,3.996621848,1,9,10,11
180,"E Ocean Avenue, Santa Monica, CA90405",34.0159981,-118.499712,1,263.1253561,7367.509972,20.18495883,22.20345471,depot-5,8.437312789,depot-9,5.32882913,depot-10,4.662725489,depot-11,3.996621848,5,9,10,11
181,"E Rustic Road, Santa Monica, CA90402",34.0474434,-118.490448,0,263.1253561,7367.509972,20.18495883,22.20345471,depot-2,8.437312789,depot-9,5.32882913,depot-10,4.662725489,depot-13,3.996621848,2,9,10,13
182,"Entrada Drive, Santa Monica, CA90402",34.0305633,-118.5126796,0,263.1253561,7367.509972,20.18495883,22.20345471,depot-1,8.437312789,depot-9,5.32882913,depot-10,4.662725489,depot-11,3.996621848,1,9,10,11
183,"Ermont Place, Santa Monica, CA90402",34.0244025,-118.5133233,0,263.1253561,7367.509972,20.18495883,22.20345471,depot-1,8.437312789,depot-9,5.32882913,depot-10,4.662725489,depot-11,3.996621848,1,9,10,11
184,"Esparta Way, Santa Monica, CA90402",34.0388512,-118.5087765,0,263.1253561,7367.509972,20.18495883,22.20345471,depot-1,8.437312789,depot-9,5.32882913,depot-10,4.662725489,depot-12,3.996621848,1,9,10,12
185,"Euclid Court, Santa Monica, CA90404",34.0244983,-118.4876624,0,263.1253561,7367.509972,20.18495883,22.20345471,depot-3,8.437312789,depot-9,5.32882913,depot-10,4.662725489,depot-12,3.996621848,3,9,10,12
186,"Euclid Street, Santa Monica, CA90402",34.028019,-118.4926653,0,263.1253561,7367.509972,20.18495883,22.20345471,depot-4,8.437312789,depot-9,5.32882913,depot-10,4.662725489,depot-12,3.996621848,4,9,10,12
187,"Euclid Street, Santa Monica, CA90403",34.028019,-118.4926653,0,263.1253561,7367.509972,20.18495883,22.20345471,depot-4,8.437312789,depot-9,5.32882913,depot-10,4.662725489,depot-12,3.996621848,4,9,10,12
188,"Euclid Street, Santa Monica, CA90404",34.0244983,-118.4876624,0,263.1253561,7367.509972,20.18495883,22.20345471,depot-3,8.437312789,depot-9,5.32882913,depot-10,4.662725489,depot-12,3.996621848,3,9,10,12
189,"Euclid Street, Santa Monica, CA90405",34.028019,-118.4926653,0,263.1253561,7367.509972,20.18495883,22.20345471,depot-4,8.437312789,depot-9,5.32882913,depot-10,4.662725489,depot-12,3.996621848,4,9,10,12
190,"Exposition Boulevard, Santa Monica, CA90404",34.030188,-118.4576109,0,263.1253561,7367.509972,20.18495883,22.20345471,depot-3,8.437312789,depot-9,5.32882913,depot-10,4.662725489,depot-14,3.996621848,3,9,10,14
191,"Foxtail Drive, Santa Monica, CA90402",34.0363396,-118.5067306,0,263.1253561,7367.509972,20.18495883,22.20345471,depot-1,8.437312789,depot-9,5.32882913,depot-10,4.662725489,depot-12,3.996621848,1,9,10,12
192,"Frank Street, Santa Monica, CA90404",34.0256642,-118.4669173,0,263.1253561,7367.509972,20.18495883,22.20345471,depot-5,8.437312789,depot-9,5.32882913,depot-10,4.662725489,depot-14,3.996621848,5,9,10,14
193,"Franklin Street, Santa Monica, CA90403",34.0358329,-118.466759,0,263.1253561,7367.509972,20.18495883,22.20345471,depot-3,8.437312789,depot-9,5.32882913,depot-10,4.662725489,depot-14,3.996621848,3,9,10,14
194,"Franklin Street, Santa Monica, CA90404",34.0358329,-118.466759,0,263.1253561,7367.509972,20.18495883,22.20345471,depot-3,8.437312789,depot-9,5.32882913,depot-10,4.662725489,depot-14,3.996621848,3,9,10,14
195,"Fraser Avenue, Santa Monica, CA90405",34.0021365,-118.4850248,1,263.1253561,7367.509972,20.18495883,22.20345471,depot-6,8.437312789,depot-9,5.32882913,depot-10,4.662725489,depot-11,3.996621848,6,9,10,11
196,"Frederick Street, Santa Monica, CA90405",34.0056206,-118.4752876,1,263.1253561,7367.509972,20.18495883,22.20345471,depot-6,8.437312789,depot-9,5.32882913,depot-10,4.662725489,depot-12,3.996621848,6,9,10,12
197,"Gale Place, Santa Monica, CA90402",34.0421752,-118.5019136,0,263.1253561,7367.509972,20.18495883,22.20345471,depot-2,8.437312789,depot-9,5.32882913,depot-10,4.662725489,depot-12,3.996621848,2,9,10,12
198,"Georgina Avenue, Santa Monica, CA90402",34.0445785,-118.4947872,0,263.1253561,7367.509972,20.18495883,22.20345471,depot-2,8.437312789,depot-9,5.32882913,depot-10,4.662725489,depot-13,3.996621848,2,9,10,13
199,"Glenn Avenue, Santa Monica, CA90405",34.0054205,-118.4693845,0,263.1253561,7367.509972,20.18495883,22.20345471,depot-6,8.437312789,depot-9,5.32882913,depot-10,4.662725489,depot-14,3.996621848,6,9,10,14
200,"Glenn Court, Santa Monica, CA90405",34.0048749,-118.4687024,0,263.1253561,7367.509972,20.18495883,22.20345471,depot-6,8.437312789,depot-9,5.32882913,depot-10,4.662725489,depot-14,3.996621848,6,9,10,14
201,"Goldsmith Street, Santa Monica, CA90405",34.0148986,-118.4666969,0,263.1253561,7367.509972,20.18495883,22.20345471,depot-5,8.437312789,depot-9,5.32882913,depot-10,4.662725489,depot-14,3.996621848,5,9,10,14
202,"Grant Street, Santa Monica, CA90405",34.0113701,-118.4809094,0,263.1253561,7367.509972,20.18495883,22.20345471,depot-5,8.437312789,depot-9,5.32882913,depot-10,4.662725489,depot-12,3.996621848,5,9,10,12
203,"Haldeman Road, Santa Monica, CA90402",34.0404053,-118.5130062,0,263.1253561,7367.509972,20.18495883,22.20345471,depot-1,8.437312789,depot-9,5.32882913,depot-10,4.662725489,depot-11,3.996621848,1,9,10,11
204,"Hart Avenue, Santa Monica, CA90405",34.0021051,-118.486326,1,263.1253561,7367.509972,20.18495883,22.20345471,depot-6,8.437312789,depot-9,5.32882913,depot-10,4.662725489,depot-11,3.996621848,6,9,10,11
205,"Harvard Street, Santa Monica, CA90403",34.0367018,-118.4753591,0,263.1253561,7367.509972,20.18495883,22.20345471,depot-2,8.437312789,depot-9,5.32882913,depot-10,4.662725489,depot-13,3.996621848,2,9,10,13
206,"Harvard Street, Santa Monica, CA90404",34.0367018,-118.4753591,0,263.1253561,7367.509972,20.18495883,22.20345471,depot-2,8.437312789,depot-9,5.32882913,depot-10,4.662725489,depot-13,3.996621848,2,9,10,13
207,"High Place, Santa Monica, CA90404",34.0244025,-118.5133233,0,263.1253561,7367.509972,20.18495883,22.20345471,depot-1,8.437312789,depot-9,5.32882913,depot-10,4.662725489,depot-11,3.996621848,1,9,10,11
208,"Highland Avenue, Santa Monica, CA90405",34.0056263,-118.4783424,1,263.1253561,7367.509972,20.18495883,22.20345471,depot-6,8.437312789,depot-9,5.32882913,depot-10,4.662725489,depot-12,3.996621848,6,9,10,12
209,"Hightree Road, Santa Monica, CA90402",34.0379788,-118.5169135,0,263.1253561,7367.509972,20.18495883,22.20345471,depot-1,8.437312789,depot-9,5.32882913,depot-10,4.662725489,depot-11,3.996621848,1,9,10,11
210,"Hill Pl N, Santa Monica, CA90405",34.0001965,-118.4814561,1,263.1253561,7367.509972,20.18495883,22.20345471,depot-6,8.437312789,depot-9,5.32882913,depot-10,4.662725489,depot-11,3.996621848,6,9,10,11
211,"Hill Street, Santa Monica, CA90405",34.0018039,-118.4816758,1,263.1253561,7367.509972,20.18495883,22.20345471,depot-6,8.437312789,depot-9,5.32882913,depot-10,4.662725489,depot-11,3.996621848,6,9,10,11
212,"Hillside Lane, Santa Monica, CA90402",34.0337539,-118.518681,0,263.1253561,7367.509972,20.18495883,22.20345471,depot-1,8.437312789,depot-9,5.32882913,depot-10,4.662725489,depot-11,3.996621848,1,9,10,11
213,"Hilltree Road, Santa Monica, CA90402",34.0369132,-118.5151209,0,263.1253561,7367.509972,20.18495883,22.20345471,depot-1,8.437312789,depot-9,5.32882913,depot-10,4.662725489,depot-11,3.996621848,1,9,10,11
214,"Hollister Avenue, Santa Monica, CA90405",34.0038843,-118.4861685,1,263.1253561,7367.509972,20.18495883,22.20345471,depot-6,8.437312789,depot-9,5.32882913,depot-10,4.662725489,depot-11,3.996621848,6,9,10,11
215,"Idaho Avenue, Santa Monica, CA90403",34.025857,-118.499352,0,263.1253561,7367.509972,20.18495883,22.20345471,depot-1,8.437312789,depot-9,5.32882913,depot-10,4.662725489,depot-11,3.996621848,1,9,10,11
216,"Kansas Avenue, Santa Monica, CA90404",34.0238307,-118.463564,0,263.1253561,7367.509972,20.18495883,22.20345471,depot-5,8.437312789,depot-9,5.32882913,depot-10,4.662725489,depot-14,3.996621848,5,9,10,14
217,"Kensington Road, Santa Monica, CA90405",34.0085291,-118.479941,1,263.1253561,7367.509972,20.18495883,22.20345471,depot-6,8.437312789,depot-9,5.32882913,depot-10,4.662725489,depot-12,3.996621848,6,9,10,12
218,"Kingman Avenue, Santa Monica, CA90402",34.0388512,-118.5087765,0,263.1253561,7367.509972,20.18495883,22.20345471,depot-1,8.437312789,depot-9,5.32882913,depot-10,4.662725489,depot-12,3.996621848,1,9,10,12
219,"Kinney Street, Santa Monica, CA90405",33.998649,-118.4809364,1,263.1253561,7367.509972,20.18495883,22.20345471,depot-6,8.437312789,depot-9,5.32882913,depot-10,4.662725489,depot-11,3.996621848,6,9,10,11
220,"la Mesa Drive, Santa Monica, CA90402",34.0462081,-118.4970724,0,263.1253561,7367.509972,20.18495883,22.20345471,depot-2,8.437312789,depot-9,5.32882913,depot-10,4.662725489,depot-13,3.996621848,2,9,10,13
221,"la Mesa Way, Santa Monica, CA90402",34.0462081,-118.4970724,0,263.1253561,7367.509972,20.18495883,22.20345471,depot-2,8.437312789,depot-9,5.32882913,depot-10,4.662725489,depot-13,3.996621848,2,9,10,13
222,"Larkin Place, Santa Monica, CA90402",34.0356274,-118.5072203,0,263.1253561,7367.509972,20.18495883,22.20345471,depot-1,8.437312789,depot-9,5.32882913,depot-10,4.662725489,depot-11,3.996621848,1,9,10,11
223,"Latimer Road, Santa Monica, CA90402",34.038924,-118.5143374,0,263.1253561,7367.509972,20.18495883,22.20345471,depot-1,8.437312789,depot-9,5.32882913,depot-10,4.662725489,depot-11,3.996621848,1,9,10,11
224,"Lincoln Boulevard, Santa Monica, CA90401",34.0193583,-118.4906837,0,263.1253561,7367.509972,20.18495883,22.20345471,depot-5,8.437312789,depot-9,5.32882913,depot-10,4.662725489,depot-12,3.996621848,5,9,10,12
225,"Lincoln Boulevard, Santa Monica, CA90402",34.0068498,-118.4752176,0,263.1253561,7367.509972,20.18495883,22.20345471,depot-6,8.437312789,depot-9,5.32882913,depot-10,4.662725489,depot-12,3.996621848,6,9,10,12
226,"Lincoln Boulevard, Santa Monica, CA90403",34.0269959,-118.499626,0,263.1253561,7367.509972,20.18495883,22.20345471,depot-1,8.437312789,depot-9,5.32882913,depot-10,4.662725489,depot-11,3.996621848,1,9,10,11
227,"Lincoln Boulevard, Santa Monica, CA90404",34.0065606,-118.4746739,0,263.1253561,7367.509972,20.18495883,22.20345471,depot-6,8.437312789,depot-9,5.32882913,depot-10,4.662725489,depot-12,3.996621848,6,9,10,12
228,"Lincoln Boulevard, Santa Monica, CA90405",34.0065606,-118.4746739,0,263.1253561,7367.509972,20.18495883,22.20345471,depot-6,8.437312789,depot-9,5.32882913,depot-10,4.662725489,depot-12,3.996621848,6,9,10,12
229,"Lincoln Court, Santa Monica, CA90401",34.0054235,-118.4738569,0,263.1253561,7367.509972,20.18495883,22.20345471,depot-6,8.437312789,depot-9,5.32882913,depot-10,4.662725489,depot-14,3.996621848,6,9,10,14
230,"Lincoln Court, Santa Monica, CA90403",34.0054235,-118.4738569,0,263.1253561,7367.509972,20.18495883,22.20345471,depot-6,8.437312789,depot-9,5.32882913,depot-10,4.662725489,depot-14,3.996621848,6,9,10,14
231,"Linda Lane, Santa Monica, CA90405",34.0061056,-118.4661698,0,263.1253561,7367.509972,20.18495883,22.20345471,depot-7,8.437312789,depot-9,5.32882913,depot-10,4.662725489,depot-14,3.996621848,7,9,10,14
232,"Lipton Avenue, Santa Monica, CA90403",34.0385768,-118.4739069,0,263.1253561,7367.509972,20.18495883,22.20345471,depot-2,8.437312789,depot-9,5.32882913,depot-10,4.662725489,depot-13,3.996621848,2,9,10,13
233,"Longfellow Street, Santa Monica, CA90405",34.0001965,-118.4814561,1,263.1253561,7367.509972,20.18495883,22.20345471,depot-6,8.437312789,depot-9,5.32882913,depot-10,4.662725489,depot-11,3.996621848,6,9,10,11
234,"Mabery Road, Santa Monica, CA90402",34.0275562,-118.5158409,0,263.1253561,7367.509972,20.18495883,22.20345471,depot-1,8.437312789,depot-9,5.32882913,depot-10,4.662725489,depot-11,3.996621848,1,9,10,11
235,"Main Street, Santa Monica, CA90401",34.002787,-118.484687,1,263.1253561,7367.509972,20.18495883,22.20345471,depot-6,8.437312789,depot-9,5.32882913,depot-10,4.662725489,depot-11,3.996621848,6,9,10,11
236,"Main Street, Santa Monica, CA90405",34.0036814,-118.4855506,1,263.1253561,7367.509972,20.18495883,22.20345471,depot-6,8.437312789,depot-9,5.32882913,depot-10,4.662725489,depot-11,3.996621848,6,9,10,11
237,"Maple Street, Santa Monica, CA90405",34.0082078,-118.4765938,0,263.1253561,7367.509972,20.18495883,22.20345471,depot-6,8.437312789,depot-9,5.32882913,depot-10,4.662725489,depot-12,3.996621848,6,9,10,12
238,"Margaret Lane, Santa Monica, CA90405",34.0097239,-118.4659276,0,263.1253561,7367.509972,20.18495883,22.20345471,depot-6,8.437312789,depot-9,5.32882913,depot-10,4.662725489,depot-14,3.996621848,6,9,10,14
239,"Marguerita Avenue, Santa Monica, CA90402",34.0247671,-118.5089937,0,263.1253561,7367.509972,20.18495883,22.20345471,depot-1,8.437312789,depot-9,5.32882913,depot-10,4.662725489,depot-11,3.996621848,1,9,10,11
240,"Marine Street, Santa Monica, CA90405",33.9984592,-118.4784768,0,263.1253561,7367.509972,20.18495883,22.20345471,depot-6,8.437312789,depot-9,5.32882913,depot-10,4.662725489,depot-11,3.996621848,6,9,10,11
241,"Marine Terrace, Santa Monica, CA90401",34.0083927,-118.4934689,1,263.1253561,7367.509972,20.18495883,22.20345471,depot-5,8.437312789,depot-9,5.32882913,depot-10,4.662725489,depot-11,3.996621848,5,9,10,11
242,"Mesa Road, Santa Monica, CA90402",34.0444554,-118.4987504,0,263.1253561,7367.509972,20.18495883,22.20345471,depot-2,8.437312789,depot-9,5.32882913,depot-10,4.662725489,depot-12,3.996621848,2,9,10,12
243,"Mesita Way, Santa Monica, CA90402",34.0230417,-118.5078273,0,263.1253561,7367.509972,20.18495883,22.20345471,depot-1,8.437312789,depot-9,5.32882913,depot-10,4.662725489,depot-11,3.996621848,1,9,10,11
244,"Michigan Avenue, Santa Monica, CA90404",34.0266064,-118.4691892,0,263.1253561,7367.509972,20.18495883,22.20345471,depot-3,8.437312789,depot-9,5.32882913,depot-10,4.662725489,depot-14,3.996621848,3,9,10,14
245,"Mills Street, Santa Monica, CA90405",34.003432,-118.4848364,1,263.1253561,7367.509972,20.18495883,22.20345471,depot-6,8.437312789,depot-9,5.32882913,depot-10,4.662725489,depot-11,3.996621848,6,9,10,11
246,"Montana Avenue, Santa Monica, CA90403",34.0245381,-118.5052426,0,263.1253561,7367.509972,20.18495883,22.20345471,depot-1,8.437312789,depot-9,5.32882913,depot-10,4.662725489,depot-11,3.996621848,1,9,10,11
247,"Moss Avenue, Santa Monica, CA90401",34.01049,-118.49577,1,263.1253561,7367.509972,20.18495883,22.20345471,depot-5,8.437312789,depot-9,5.32882913,depot-10,4.662725489,depot-11,3.996621848,5,9,10,11
248,"N East Channel Road, Santa Monica, CA90402",34.0357085,-118.5111044,0,263.1253561,7367.509972,20.18495883,22.20345471,depot-1,8.437312789,depot-9,5.32882913,depot-10,4.662725489,depot-11,3.996621848,1,9,10,11
249,"N Ocean Avenue, Santa Monica, CA90402",34.0230417,-118.5078273,0,263.1253561,7367.509972,20.18495883,22.20345471,depot-1,8.437312789,depot-9,5.32882913,depot-10,4.662725489,depot-11,3.996621848,1,9,10,11
250,"N Ocean Avenue, Santa Monica, CA90405",34.0230417,-118.5078273,0,263.1253561,7367.509972,20.18495883,22.20345471,depot-1,8.437312789,depot-9,5.32882913,depot-10,4.662725489,depot-11,3.996621848,1,9,10,11
251,"N San Lorenzo Street, Santa Monica, CA90402",34.0283383,-118.5189364,0,263.1253561,7367.509972,20.18495883,22.20345471,depot-1,8.437312789,depot-9,5.32882913,depot-10,4.662725489,depot-11,3.996621848,1,9,10,11
252,"Navy Street, Santa Monica, CA90405",34.0029493,-118.471558,1,263.1253561,7367.509972,20.18495883,22.20345471,depot-6,8.437312789,depot-9,5.32882913,depot-10,4.662725489,depot-14,3.996621848,6,9,10,14
253,"Nebraska Avenue, Santa Monica, CA90404",34.031654,-118.4631848,0,263.1253561,7367.509972,20.18495883,22.20345471,depot-3,8.437312789,depot-9,5.32882913,depot-10,4.662725489,depot-14,3.996621848,3,9,10,14
254,"Neilson Way, Santa Monica, CA90405",33.9996727,-118.4828833,1,263.1253561,7367.509972,20.18495883,22.20345471,depot-6,8.437312789,depot-9,5.32882913,depot-10,4.662725489,depot-11,3.996621848,6,9,10,11
255,"Norman Place, Santa Monica, CA90405",34.0028692,-118.4837587,1,263.1253561,7367.509972,20.18495883,22.20345471,depot-6,8.437312789,depot-9,5.32882913,depot-10,4.662725489,depot-11,3.996621848,6,9,10,11
256,"Oak Street, Santa Monica, CA90405",34.0158462,-118.4583161,0,263.1253561,7367.509972,20.18495883,22.20345471,depot-5,8.437312789,depot-9,5.32882913,depot-10,4.662725489,depot-14,3.996621848,5,9,10,14
257,"Ocean Avenue, Santa Monica, CA90401",34.0166374,-118.5002082,1,263.1253561,7367.509972,20.18495883,22.20345471,depot-5,8.437312789,depot-9,5.32882913,depot-10,4.662725489,depot-11,3.996621848,5,9,10,11
258,"Ocean Avenue, Santa Monica, CA90402",34.0230417,-118.5078273,0,263.1253561,7367.509972,20.18495883,22.20345471,depot-1,8.437312789,depot-9,5.32882913,depot-10,4.662725489,depot-11,3.996621848,1,9,10,11
259,"Ocean Avenue, Santa Monica, CA90403",34.019002,-118.503172,0,263.1253561,7367.509972,20.18495883,22.20345471,depot-1,8.437312789,depot-9,5.32882913,depot-10,4.662725489,depot-11,3.996621848,1,9,10,11
260,"Ocean Avenue, Santa Monica, CA90405",34.0190413,-118.5035159,0,263.1253561,7367.509972,20.18495883,22.20345471,depot-1,8.437312789,depot-9,5.32882913,depot-10,4.662725489,depot-11,3.996621848,1,9,10,11
261,"Ocean Avenue Exd, Santa Monica, CA90402",34.0230417,-118.5078273,0,263.1253561,7367.509972,20.18495883,22.20345471,depot-1,8.437312789,depot-9,5.32882913,depot-10,4.662725489,depot-11,3.996621848,1,9,10,11
262,"Ocean Front, Santa Monica, CA90401",34.01325,-118.496484,1,263.1253561,7367.509972,20.18495883,22.20345471,depot-5,8.437312789,depot-9,5.32882913,depot-10,4.662725489,depot-11,3.996621848,5,9,10,11
263,"Ocean Front, Santa Monica, CA90405",34.0128379,-118.46591,0,263.1253561,7367.509972,20.18495883,22.20345471,depot-6,8.437312789,depot-9,5.32882913,depot-10,4.662725489,depot-14,3.996621848,6,9,10,14
264,"Ocean Front Walk, Santa Monica, CA90401",34.0093558,-118.4944394,0,263.1253561,7367.509972,20.18495883,22.20345471,depot-5,8.437312789,depot-9,5.32882913,depot-10,4.662725489,depot-11,3.996621848,5,9,10,11
265,"Ocean Front Walk, Santa Monica, CA90405",34.0093558,-118.4944394,1,263.1253561,7367.509972,20.18495883,22.20345471,depot-5,8.437312789,depot-9,5.32882913,depot-10,4.662725489,depot-11,3.996621848,5,9,10,11
266,"Ocean Park Boulevard, Santa Monica, CA90405",34.013017,-118.466489,0,263.1253561,7367.509972,20.18495883,22.20345471,depot-6,8.437312789,depot-9,5.32882913,depot-10,4.662725489,depot-14,3.996621848,6,9,10,14
267,"Ocean Park Pl N, Santa Monica, CA90405",34.013017,-118.466489,0,263.1253561,7367.509972,20.18495883,22.20345471,depot-6,8.437312789,depot-9,5.32882913,depot-10,4.662725489,depot-14,3.996621848,6,9,10,14
268,"Ocean Park Pl S, Santa Monica, CA90405",34.018552,-118.457016,0,263.1253561,7367.509972,20.18495883,22.20345471,depot-8,8.437312789,depot-9,5.32882913,depot-10,4.662725489,depot-14,3.996621848,8,9,10,14
269,"Ocean Way, Santa Monica, CA90402",34.0272224,-118.5154129,0,263.1253561,7367.509972,20.18495883,22.20345471,depot-1,8.437312789,depot-9,5.32882913,depot-10,4.662725489,depot-11,3.996621848,1,9,10,11
270,"Ocean Way, Santa Monica, CA90405",34.0062695,-118.4914714,1,263.1253561,7367.509972,20.18495883,22.20345471,depot-5,8.437312789,depot-9,5.32882913,depot-10,4.662725489,depot-11,3.996621848,5,9,10,11
271,"Olympic Boulevard, Santa Monica, CA90401",34.0286797,-118.4715655,0,263.1253561,7367.509972,20.18495883,22.20345471,depot-3,8.437312789,depot-9,5.32882913,depot-10,4.662725489,depot-14,3.996621848,3,9,10,14
272,"Olympic Boulevard, Santa Monica, CA90404",34.0310719,-118.4625612,0,263.1253561,7367.509972,20.18495883,22.20345471,depot-3,8.437312789,depot-9,5.32882913,depot-10,4.662725489,depot-14,3.996621848,3,9,10,14
273,"Ozone Avenue, Santa Monica, CA90405",34.0015705,-118.4720712,0,263.1253561,7367.509972,20.18495883,22.20345471,depot-6,8.437312789,depot-9,5.32882913,depot-10,4.662725489,depot-14,3.996621848,6,9,10,14
274,"Pacific Coast Highway, Santa Monica, CA90401",34.0155196,-118.5014086,1,263.1253561,7367.509972,20.18495883,22.20345471,depot-5,8.437312789,depot-9,5.32882913,depot-10,4.662725489,depot-11,3.996621848,5,9,10,11
275,"Pacific Coast Highway, Santa Monica, CA90402",34.0244025,-118.5133233,0,263.1253561,7367.509972,20.18495883,22.20345471,depot-1,8.437312789,depot-9,5.32882913,depot-10,4.662725489,depot-11,3.996621848,1,9,10,11
276,"Pacific Coast Highway, Santa Monica, CA90403",34.0211309,-118.5084952,0,263.1253561,7367.509972,20.18495883,22.20345471,depot-1,8.437312789,depot-9,5.32882913,depot-10,4.662725489,depot-11,3.996621848,1,9,10,11
277,"Pacific Street, Santa Monica, CA90405",34.0056212,-118.4877649,1,263.1253561,7367.509972,20.18495883,22.20345471,depot-6,8.437312789,depot-9,5.32882913,depot-10,4.662725489,depot-11,3.996621848,6,9,10,11
278,"Pacific Terrace, Santa Monica, CA90401",34.021256,-118.505027,0,263.1253561,7367.509972,20.18495883,22.20345471,depot-1,8.437312789,depot-9,5.32882913,depot-10,4.662725489,depot-11,3.996621848,1,9,10,11
279,"Palisades Avenue, Santa Monica, CA90402",34.0230179,-118.5094604,0,263.1253561,7367.509972,20.18495883,22.20345471,depot-1,8.437312789,depot-9,5.32882913,depot-10,4.662725489,depot-11,3.996621848,1,9,10,11
280,"Palisades Beach Road, Santa Monica, CA90401",34.0252416,-118.5142023,0,263.1253561,7367.509972,20.18495883,22.20345471,depot-1,8.437312789,depot-9,5.32882913,depot-10,4.662725489,depot-11,3.996621848,1,9,10,11
281,"Palisades Beach Road, Santa Monica, CA90402",34.025091,-118.514356,0,263.1253561,7367.509972,20.18495883,22.20345471,depot-1,8.437312789,depot-9,5.32882913,depot-10,4.662725489,depot-11,3.996621848,1,9,10,11
282,"Palisades Beach Road, Santa Monica, CA90403",34.0152589,-118.5008211,1,263.1253561,7367.509972,20.18495883,22.20345471,depot-5,8.437312789,depot-9,5.32882913,depot-10,4.662725489,depot-11,3.996621848,5,9,10,11
283,"Park Drive, Santa Monica, CA90404",34.086434,-118.247567,0,263.1253561,7367.509972,20.18495883,22.20345471,depot-8,8.437312789,depot-9,5.32882913,depot-10,4.662725489,depot-15,3.996621848,8,9,10,15
284,"Paula Drive, Santa Monica, CA90405",34.0057254,-118.4667134,0,263.1253561,7367.509972,20.18495883,22.20345471,depot-6,8.437312789,depot-9,5.32882913,depot-10,4.662725489,depot-14,3.996621848,6,9,10,14
285,"Pearl Place, Santa Monica, CA90405",34.0138925,-118.4720882,0,263.1253561,7367.509972,20.18495883,22.20345471,depot-5,8.437312789,depot-9,5.32882913,depot-10,4.662725489,depot-14,3.996621848,5,9,10,14
286,"Pearl Street, Santa Monica, CA90405",34.0146375,-118.4702007,0,263.1253561,7367.509972,20.18495883,22.20345471,depot-5,8.437312789,depot-9,5.32882913,depot-10,4.662725489,depot-14,3.996621848,5,9,10,14
287,"Pennsylvania Avenue, Santa Monica, CA90404",34.0326212,-118.4667405,0,263.1253561,7367.509972,20.18495883,22.20345471,depot-3,8.437312789,depot-9,5.32882913,depot-10,4.662725489,depot-14,3.996621848,3,9,10,14
288,"Pico Boulevard, Santa Monica, CA90405",34.007049,-118.4919824,1,263.1253561,7367.509972,20.18495883,22.20345471,depot-5,8.437312789,depot-9,5.32882913,depot-10,4.662725489,depot-11,3.996621848,5,9,10,11
289,"Pico Place, Santa Monica, CA90405",34.0132725,-118.4808759,0,263.1253561,7367.509972,20.18495883,22.20345471,depot-5,8.437312789,depot-9,5.32882913,depot-10,4.662725489,depot-12,3.996621848,5,9,10,12
290,"Pier Avenue, Santa Monica, CA90405",33.9983002,-118.4806673,1,263.1253561,7367.509972,20.18495883,22.20345471,depot-6,8.437312789,depot-9,5.32882913,depot-10,4.662725489,depot-11,3.996621848,6,9,10,11
291,"Pine Street, Santa Monica, CA90405",34.0075231,-118.4777836,1,263.1253561,7367.509972,20.18495883,22.20345471,depot-6,8.437312789,depot-9,5.32882913,depot-10,4.662725489,depot-12,3.996621848,6,9,10,12
292,"Princeton Street, Santa Monica, CA90403",34.0351798,-118.474867,0,263.1253561,7367.509972,20.18495883,22.20345471,depot-2,8.437312789,depot-9,5.32882913,depot-10,4.662725489,depot-14,3.996621848,2,9,10,14
293,"Princeton Street, Santa Monica, CA90404",34.0323739,-118.4717747,0,263.1253561,7367.509972,20.18495883,22.20345471,depot-3,8.437312789,depot-9,5.32882913,depot-10,4.662725489,depot-14,3.996621848,3,9,10,14
294,"Prospect Avenue, Santa Monica, CA90405",33.9959173,-118.4543385,0,263.1253561,7367.509972,20.18495883,22.20345471,depot-7,8.437312789,depot-9,5.32882913,depot-10,4.662725489,depot-15,3.996621848,7,9,10,15
295,"Raymond Avenue, Santa Monica, CA90405",34.0027692,-118.4778891,1,263.1253561,7367.509972,20.18495883,22.20345471,depot-6,8.437312789,depot-9,5.32882913,depot-10,4.662725489,depot-12,3.996621848,6,9,10,12
296,"Robson Avenue, Santa Monica, CA90405",34.0067804,-118.4635166,0,263.1253561,7367.509972,20.18495883,22.20345471,depot-7,8.437312789,depot-9,5.32882913,depot-10,4.662725489,depot-15,3.996621848,7,9,10,15
297,"Ruskin Street, Santa Monica, CA90405",34.014784,-118.4495992,0,263.1253561,7367.509972,20.18495883,22.20345471,depot-8,8.437312789,depot-9,5.32882913,depot-10,4.662725489,depot-15,3.996621848,8,9,10,15
298,"S 26th Street, Santa Monica, CA90402",34.0475609,-118.4904484,0,263.1253561,7367.509972,20.18495883,22.20345471,depot-2,8.437312789,depot-9,5.32882913,depot-10,4.662725489,depot-13,3.996621848,2,9,10,13
299,"S Centinela Avenue, Santa Monica, CA90404",34.0234307,-118.4496407,0,263.1253561,7367.509972,20.18495883,22.20345471,depot-8,8.437312789,depot-9,5.32882913,depot-10,4.662725489,depot-14,3.996621848,8,9,10,14
300,"S Centinela Avenue, Santa Monica, CA90405",34.0234307,-118.4496407,0,263.1253561,7367.509972,20.18495883,22.20345471,depot-8,8.437312789,depot-9,5.32882913,depot-10,4.662725489,depot-14,3.996621848,8,9,10,14
301,"S Pico Place, Santa Monica, CA90405",34.0141981,-118.4787651,0,263.1253561,7367.509972,20.18495883,22.20345471,depot-5,8.437312789,depot-9,5.32882913,depot-10,4.662725489,depot-12,3.996621848,5,9,10,12
302,"Sage Lane, Santa Monica, CA90402",34.0309146,-118.5148187,0,263.1253561,7367.509972,20.18495883,22.20345471,depot-1,8.437312789,depot-9,5.32882913,depot-10,4.662725489,depot-11,3.996621848,1,9,10,11
303,"San Lorenzo Street, Santa Monica, CA90402",34.038071,-118.510057,0,263.1253561,7367.509972,20.18495883,22.20345471,depot-1,8.437312789,depot-9,5.32882913,depot-10,4.662725489,depot-11,3.996621848,1,9,10,11
304,"San Vicente Boulevard, Santa Monica, CA90402",34.0279645,-118.511927,0,263.1253561,7367.509972,20.18495883,22.20345471,depot-1,8.437312789,depot-9,5.32882913,depot-10,4.662725489,depot-11,3.996621848,1,9,10,11
305,"Santa Monica Boulevard, Santa Monica, CA90401",34.0175682,-118.4941615,1,263.1253561,7367.509972,20.18495883,22.20345471,depot-5,8.437312789,depot-9,5.32882913,depot-10,4.662725489,depot-11,3.996621848,5,9,10,11
306,"Santa Monica Boulevard, Santa Monica, CA90404",34.0333177,-118.4755183,0,263.1253561,7367.509972,20.18495883,22.20345471,depot-3,8.437312789,depot-9,5.32882913,depot-10,4.662725489,depot-14,3.996621848,3,9,10,14
307,"Schader Drive, Santa Monica, CA90404",34.0304024,-118.4759068,0,263.1253561,7367.509972,20.18495883,22.20345471,depot-3,8.437312789,depot-9,5.32882913,depot-10,4.662725489,depot-14,3.996621848,3,9,10,14
308,"Sea Colony Drive, Santa Monica, CA90405",33.9980049,-118.4825744,1,263.1253561,7367.509972,20.18495883,22.20345471,depot-6,8.437312789,depot-9,5.32882913,depot-10,4.662725489,depot-11,3.996621848,6,9,10,11
309,"Seaside Terrace, Santa Monica, CA90401",34.0099943,-118.4965085,1,263.1253561,7367.509972,20.18495883,22.20345471,depot-5,8.437312789,depot-9,5.32882913,depot-10,4.662725489,depot-11,3.996621848,5,9,10,11
310,"Seaview Terrace, Santa Monica, CA90401",34.0082472,-118.4915222,1,263.1253561,7367.509972,20.18495883,22.20345471,depot-5,8.437312789,depot-9,5.32882913,depot-10,4.662725489,depot-11,3.996621848,5,9,10,11
311,"Short Street, Santa Monica, CA90402",34.027946,-118.518455,0,263.1253561,7367.509972,20.18495883,22.20345471,depot-1,8.437312789,depot-9,5.32882913,depot-10,4.662725489,depot-11,3.996621848,1,9,10,11
312,"Stanford Street, Santa Monica, CA90403",34.0318183,-118.4664077,0,263.1253561,7367.509972,20.18495883,22.20345471,depot-3,8.437312789,depot-9,5.32882913,depot-10,4.662725489,depot-14,3.996621848,3,9,10,14
313,"Stanford Street, Santa Monica, CA90404",34.0387904,-118.4737822,0,263.1253561,7367.509972,20.18495883,22.20345471,depot-2,8.437312789,depot-9,5.32882913,depot-10,4.662725489,depot-13,3.996621848,2,9,10,13
314,"Stassi Lane, Santa Monica, CA90402",34.0321237,-118.5107583,0,263.1253561,7367.509972,20.18495883,22.20345471,depot-1,8.437312789,depot-9,5.32882913,depot-10,4.662725489,depot-11,3.996621848,1,9,10,11
315,"State Route 1, Santa Monica, CA90401",34.0151519,-118.4865267,1,263.1253561,7367.509972,20.18495883,22.20345471,depot-5,8.437312789,depot-9,5.32882913,depot-10,4.662725489,depot-12,3.996621848,5,9,10,12
316,"State Route 1, Santa Monica, CA90402",34.0151519,-118.4865267,1,263.1253561,7367.509972,20.18495883,22.20345471,depot-5,8.437312789,depot-9,5.32882913,depot-10,4.662725489,depot-12,3.996621848,5,9,10,12
317,"State Route 1, Santa Monica, CA90403",34.0151519,-118.4865267,1,263.1253561,7367.509972,20.18495883,22.20345471,depot-5,8.437312789,depot-9,5.32882913,depot-10,4.662725489,depot-12,3.996621848,5,9,10,12
318,"State Route 1, Santa Monica, CA90404",34.0151519,-118.4865267,1,263.1253561,7367.509972,20.18495883,22.20345471,depot-5,8.437312789,depot-9,5.32882913,depot-10,4.662725489,depot-12,3.996621848,5,9,10,12
319,"State Route 1, Santa Monica, CA90405",34.0151519,-118.4865267,1,263.1253561,7367.509972,20.18495883,22.20345471,depot-5,8.437312789,depot-9,5.32882913,depot-10,4.662725489,depot-12,3.996621848,5,9,10,12
320,"State Route 2, Santa Monica, CA90401",34.0385883,-118.4675526,0,263.1253561,7367.509972,20.18495883,22.20345471,depot-2,8.437312789,depot-9,5.32882913,depot-10,4.662725489,depot-14,3.996621848,2,9,10,14
321,"State Route 2, Santa Monica, CA90404",34.0385883,-118.4675526,0,263.1253561,7367.509972,20.18495883,22.20345471,depot-2,8.437312789,depot-9,5.32882913,depot-10,4.662725489,depot-14,3.996621848,2,9,10,14
322,"Steiner Avenue, Santa Monica, CA90405",34.01105,-118.4683813,0,263.1253561,7367.509972,20.18495883,22.20345471,depot-6,8.437312789,depot-9,5.32882913,depot-10,4.662725489,depot-14,3.996621848,6,9,10,14
323,"Stewart Street, Santa Monica, CA90404",34.030681,-118.465911,0,263.1253561,7367.509972,20.18495883,22.20345471,depot-3,8.437312789,depot-9,5.32882913,depot-10,4.662725489,depot-14,3.996621848,3,9,10,14
324,"Strand Street, Santa Monica, CA90405",34.0045945,-118.4868071,1,263.1253561,7367.509972,20.18495883,22.20345471,depot-6,8.437312789,depot-9,5.32882913,depot-10,4.662725489,depot-11,3.996621848,6,9,10,11
325,"Sumac Lane, Santa Monica, CA90402",34.0309146,-118.5148187,0,263.1253561,7367.509972,20.18495883,22.20345471,depot-1,8.437312789,depot-9,5.32882913,depot-10,4.662725489,depot-11,3.996621848,1,9,10,11
326,"Sunset Avenue, Santa Monica, CA90405",34.0077403,-118.4673461,0,263.1253561,7367.509972,20.18495883,22.20345471,depot-6,8.437312789,depot-9,5.32882913,depot-10,4.662725489,depot-14,3.996621848,6,9,10,14
327,"Sycamore Road, Santa Monica, CA90402",34.027946,-118.518455,0,263.1253561,7367.509972,20.18495883,22.20345471,depot-1,8.437312789,depot-9,5.32882913,depot-10,4.662725489,depot-11,3.996621848,1,9,10,11
328,"Taft Way, Santa Monica, CA90401",34.0178335,-118.5016847,1,263.1253561,7367.509972,20.18495883,22.20345471,depot-1,8.437312789,depot-9,5.32882913,depot-10,4.662725489,depot-11,3.996621848,1,9,10,11
329,"The Promenade, Santa Monica, CA90401",34.0164092,-118.4967894,1,263.1253561,7367.509972,20.18495883,22.20345471,depot-5,8.437312789,depot-9,5.32882913,depot-10,4.662725489,depot-11,3.996621848,5,9,10,11
330,"The Promenade, Santa Monica, CA90405",34.0164092,-118.4967894,1,263.1253561,7367.509972,20.18495883,22.20345471,depot-5,8.437312789,depot-9,5.32882913,depot-10,4.662725489,depot-11,3.996621848,5,9,10,11
331,"Upper Mesa Road, Santa Monica, CA90402",34.0340072,-118.5157256,0,263.1253561,7367.509972,20.18495883,22.20345471,depot-1,8.437312789,depot-9,5.32882913,depot-10,4.662725489,depot-11,3.996621848,1,9,10,11
332,"Urban Avenue, Santa Monica, CA90404",34.0253098,-118.4596625,0,263.1253561,7367.509972,20.18495883,22.20345471,depot-5,8.437312789,depot-9,5.32882913,depot-10,4.662725489,depot-14,3.996621848,5,9,10,14
333,"Vicente Terrace, Santa Monica, CA90401",34.0279645,-118.511927,0,263.1253561,7367.509972,20.18495883,22.20345471,depot-1,8.437312789,depot-9,5.32882913,depot-10,4.662725489,depot-11,3.996621848,1,9,10,11
334,"Village Pkwy, Santa Monica, CA90405",34.0179049,-118.4578008,0,263.1253561,7367.509972,20.18495883,22.20345471,depot-5,8.437312789,depot-9,5.32882913,depot-10,4.662725489,depot-14,3.996621848,5,9,10,14
335,"Virginia Avenue, Santa Monica, CA90404",34.0216384,-118.4674549,0,263.1253561,7367.509972,20.18495883,22.20345471,depot-5,8.437312789,depot-9,5.32882913,depot-10,4.662725489,depot-14,3.996621848,5,9,10,14
336,"W Channel Road, Santa Monica, CA90402",34.029798,-118.5174586,0,263.1253561,7367.509972,20.18495883,22.20345471,depot-1,8.437312789,depot-9,5.32882913,depot-10,4.662725489,depot-11,3.996621848,1,9,10,11
337,"W Rustic Road, Santa Monica, CA90402",34.0322748,-118.4817852,0,263.1253561,7367.509972,20.18495883,22.20345471,depot-3,8.437312789,depot-9,5.32882913,depot-10,4.662725489,depot-13,3.996621848,3,9,10,13
338,"W Santa Monica Boulevard, Santa Monica, CA90404",34.0347439,-118.4725803,0,263.1253561,7367.509972,20.18495883,22.20345471,depot-3,8.437312789,depot-9,5.32882913,depot-10,4.662725489,depot-14,3.996621848,3,9,10,14
339,"Wadsworth Avenue, Santa Monica, CA90405",34.003008,-118.4866285,1,263.1253561,7367.509972,20.18495883,22.20345471,depot-6,8.437312789,depot-9,5.32882913,depot-10,4.662725489,depot-11,3.996621848,6,9,10,11
340,"Warwick Avenue, Santa Monica, CA90404",34.0293131,-118.4582193,0,263.1253561,7367.509972,20.18495883,22.20345471,depot-3,8.437312789,depot-9,5.32882913,depot-10,4.662725489,depot-14,3.996621848,3,9,10,14
341,"Washington Avenue, Santa Monica, CA90403",34.029868,-118.4919258,0,263.1253561,7367.509972,20.18495883,22.20345471,depot-3,8.437312789,depot-9,5.32882913,depot-10,4.662725489,depot-12,3.996621848,3,9,10,12
342,"Washington Pl S, Santa Monica, CA90403",34.0374567,-118.4815324,0,263.1253561,7367.509972,20.18495883,22.20345471,depot-2,8.437312789,depot-9,5.32882913,depot-10,4.662725489,depot-13,3.996621848,2,9,10,13
343,"Wellesley Drive, Santa Monica, CA90405",34.008867,-118.463152,0,263.1253561,7367.509972,20.18495883,22.20345471,depot-7,8.437312789,depot-9,5.32882913,depot-10,4.662725489,depot-14,3.996621848,7,9,10,14
344,"Wilshire Boulevard, Santa Monica, CA90401",34.017523,-118.499814,1,263.1253561,7367.509972,20.18495883,22.20345471,depot-5,8.437312789,depot-9,5.32882913,depot-10,4.662725489,depot-11,3.996621848,5,9,10,11
345,"Wilshire Boulevard, Santa Monica, CA90403",34.033503,-118.4803348,0,263.1253561,7367.509972,20.18495883,22.20345471,depot-2,8.437312789,depot-9,5.32882913,depot-10,4.662725489,depot-13,3.996621848,2,9,10,13
346,"Wilson Place, Santa Monica, CA90405",34.0025792,-118.4710091,0,263.1253561,7367.509972,20.18495883,22.20345471,depot-6,8.437312789,depot-9,5.32882913,depot-10,4.662725489,depot-14,3.996621848,6,9,10,14
347,"Winnett Place, Santa Monica, CA90402",34.0318534,-118.5026596,0,263.1253561,7367.509972,20.18495883,22.20345471,depot-1,8.437312789,depot-9,5.32882913,depot-10,4.662725489,depot-12,3.996621848,1,9,10,12
348,"Woodacres Road, Santa Monica, CA90402",34.0399499,-118.5054752,0,263.1253561,7367.509972,20.18495883,22.20345471,depot-1,8.437312789,depot-9,5.32882913,depot-10,4.662725489,depot-12,3.996621848,1,9,10,12
349,"Yale Street, Santa Monica, CA90403",34.0383661,-118.4750599,0,263.1253561,7367.509972,20.18495883,22.20345471,depot-2,8.437312789,depot-9,5.32882913,depot-10,4.662725489,depot-13,3.996621848,2,9,10,13
350,"Yale Street, Santa Monica, CA90404",34.034314,-118.470567,0,263.1253561,7367.509972,20.18495883,22.20345471,depot-3,8.437312789,depot-9,5.32882913,depot-10,4.662725489,depot-14,3.996621848,3,9,10,14
351,"Yorkshire Avenue, Santa Monica, CA90404",34.0262517,-118.4613643,0,263.1253561,7367.509972,20.18495883,22.20345471,depot-5,8.437312789,depot-9,5.32882913,depot-10,4.662725489,depot-14,3.996621848,5,9,10,14
